IRIDIUM 159             
1 43578U 18061K   24246.59150736  .00000732  00000+0  25438-3 0  9993
2 43578  86.4011 329.4425 0002273  96.1845 263.9610 14.34216147319840
IRIDIUM 180             
1 43922U 19002A   24246.52123162  .00000408  00000+0  13869-3 0  9993
2 43922  86.3911 266.3208 0002467  91.8675 268.2803 14.34222875295443
IRIDIUM 176             
1 43923U 19002B   24246.60098942  .00001211  00000+0  18814-3 0  9998
2 43923  86.6040 266.3029 0002532  92.4396 267.7111 14.72244503303238
IRIDIUM 168             
1 43924U 19002C   24246.58466388  .00000095  00000+0  26702-4 0  9994
2 43924  86.3914 266.3533 0002373  93.0169 267.1298 14.34218015295433
IRIDIUM 173             
1 43925U 19002D   24246.43243965  .00000002  00000+0 -63502-5 0  9992
2 43925  86.3911 266.3324 0002317  90.4526 269.6935 14.34220068295396
IRIDIUM 169             
1 43926U 19002E   24246.61046572  .00001075  00000+0  34486-3 0  9995
2 43926  86.4207 297.9059 0002306  42.8313 317.3065 14.38610066296407
IRIDIUM 172             
1 43927U 19002F   24246.56563704  .00000854  00000+0  29770-3 0  9995
2 43927  86.3913 266.2828 0002337  94.3166 265.8297 14.34220032295427
IRIDIUM 175             
1 43928U 19002G   24246.45960847  .00001424  00000+0  22181-3 0  9996
2 43928  86.1482 235.1394 0002376  86.9235 273.2253 14.72270876303201
